CCSDS_OMM_VERS = 2.0
CREATION_DATE  = 
ORIGINATOR     = 

OBJECT_NAME    = COSMOS 1743
OBJECT_ID      = 1986-034A
CENTER_NAME    = EARTH
REF_FRAME      = TEME
TIME_SYSTEM    = UTC
MEAN_ELEMENT_THEORY = SGP/SGP4

EPOCH          = 2025-10-27T18:29:12.287040
MEAN_MOTION    = 15.48991096
ECCENTRICITY   = .0009328
INCLINATION    = 82.5383
RA_OF_ASC_NODE = 212.2143
ARG_OF_PERICENTER = 64.4501
MEAN_ANOMALY   = 295.7712

EPHEMERIS_TYPE = 0
CLASSIFICATION_TYPE = U
NORAD_CAT_ID   = 16719
ELEMENT_SET_NO = 999
REV_AT_EPOCH   = 15961
BSTAR          = .5491E-3
MEAN_MOTION_DOT = .29844E-3
MEAN_MOTION_DDOT = 0

CCSDS_OMM_VERS = 2.0
CREATION_DATE  = 
ORIGINATOR     = 

OBJECT_NAME    = SL-14 R/B
OBJECT_ID      = 1986-046B
CENTER_NAME    = EARTH
REF_FRAME      = TEME
TIME_SYSTEM    = UTC
MEAN_ELEMENT_THEORY = SGP/SGP4

EPOCH          = 2025-10-27T20:11:42.365184
MEAN_MOTION    = 14.85416234
ECCENTRICITY   = .0022016
INCLINATION    = 82.4845
RA_OF_ASC_NODE = 205.6518
ARG_OF_PERICENTER = 309.9460
MEAN_ANOMALY   = 49.9821

EPHEMERIS_TYPE = 0
CLASSIFICATION_TYPE = U
NORAD_CAT_ID   = 16792
ELEMENT_SET_NO = 999
REV_AT_EPOCH   = 10668
BSTAR          = .84176E-4
MEAN_MOTION_DOT = .752E-5
MEAN_MOTION_DDOT = 0

CCSDS_OMM_VERS = 2.0
CREATION_DATE  = 
ORIGINATOR     = 

OBJECT_NAME    = SL-14 R/B
OBJECT_ID      = 1986-055B
CENTER_NAME    = EARTH
REF_FRAME      = TEME
TIME_SYSTEM    = UTC
MEAN_ELEMENT_THEORY = SGP/SGP4

EPOCH          = 2025-10-27T20:11:46.545216
MEAN_MOTION    = 14.85452698
ECCENTRICITY   = .0020393
INCLINATION    = 82.5196
RA_OF_ASC_NODE = 251.4956
ARG_OF_PERICENTER = 54.5452
MEAN_ANOMALY   = 9.0867

EPHEMERIS_TYPE = 0
CLASSIFICATION_TYPE = U
NORAD_CAT_ID   = 16882
ELEMENT_SET_NO = 999
REV_AT_EPOCH   = 9964
BSTAR          = .10416E-3
MEAN_MOTION_DOT = .925E-5
MEAN_MOTION_DDOT = 0

CCSDS_OMM_VERS = 2.0
CREATION_DATE  = 
ORIGINATOR     = 

OBJECT_NAME    = AJISAI (EGS)
OBJECT_ID      = 1986-061A
CENTER_NAME    = EARTH
REF_FRAME      = TEME
TIME_SYSTEM    = UTC
MEAN_ELEMENT_THEORY = SGP/SGP4

EPOCH          = 2025-10-27T21:03:07.812000
MEAN_MOTION    = 12.44514005
ECCENTRICITY   = .001114
INCLINATION    = 50.0073
RA_OF_ASC_NODE = 141.7429
ARG_OF_PERICENTER = 309.9082
MEAN_ANOMALY   = 72.1273

EPHEMERIS_TYPE = 0
CLASSIFICATION_TYPE = U
NORAD_CAT_ID   = 16908
ELEMENT_SET_NO = 999
REV_AT_EPOCH   = 45146
BSTAR          = .11719E-4
MEAN_MOTION_DOT = -.96E-6
MEAN_MOTION_DDOT = 0

CCSDS_OMM_VERS = 2.0
CREATION_DATE  = 
ORIGINATOR     = 

OBJECT_NAME    = COSMOS 1812
OBJECT_ID      = 1987-003A
CENTER_NAME    = EARTH
REF_FRAME      = TEME
TIME_SYSTEM    = UTC
MEAN_ELEMENT_THEORY = SGP/SGP4

EPOCH          = 2025-10-27T03:50:51.413856
MEAN_MOTION    = 15.66751537
ECCENTRICITY   = .00029054
INCLINATION    = 82.4905
RA_OF_ASC_NODE = 342.0814
ARG_OF_PERICENTER = 193.8739
MEAN_ANOMALY   = 166.2442

EPHEMERIS_TYPE = 0
CLASSIFICATION_TYPE = U
NORAD_CAT_ID   = 17295
ELEMENT_SET_NO = 999
REV_AT_EPOCH   = 12334
BSTAR          = .56439899E-3
MEAN_MOTION_DOT = .59675E-3
MEAN_MOTION_DDOT = 0

CCSDS_OMM_VERS = 2.0
CREATION_DATE  = 
ORIGINATOR     = 

OBJECT_NAME    = SL-14 R/B
OBJECT_ID      = 1987-024B
CENTER_NAME    = EARTH
REF_FRAME      = TEME
TIME_SYSTEM    = UTC
MEAN_ELEMENT_THEORY = SGP/SGP4

EPOCH          = 2025-10-27T20:32:15.153216
MEAN_MOTION    = 14.85954156
ECCENTRICITY   = .001796
INCLINATION    = 82.5304
RA_OF_ASC_NODE = 217.5480
ARG_OF_PERICENTER = 345.8385
MEAN_ANOMALY   = 14.2325

EPHEMERIS_TYPE = 0
CLASSIFICATION_TYPE = U
NORAD_CAT_ID   = 17567
ELEMENT_SET_NO = 999
REV_AT_EPOCH   = 6840
BSTAR          = .95607E-4
MEAN_MOTION_DOT = .86E-5
MEAN_MOTION_DDOT = 0

CCSDS_OMM_VERS = 2.0
CREATION_DATE  = 
ORIGINATOR     = 

OBJECT_NAME    = COSMOS 1833
OBJECT_ID      = 1987-027A
CENTER_NAME    = EARTH
REF_FRAME      = TEME
TIME_SYSTEM    = UTC
MEAN_ELEMENT_THEORY = SGP/SGP4

EPOCH          = 2025-10-27T20:16:56.155296
MEAN_MOTION    = 14.13027146
ECCENTRICITY   = .0020393
INCLINATION    = 70.9166
RA_OF_ASC_NODE = 245.2511
ARG_OF_PERICENTER = 37.1547
MEAN_ANOMALY   = 323.0981

EPHEMERIS_TYPE = 0
CLASSIFICATION_TYPE = U
NORAD_CAT_ID   = 17589
ELEMENT_SET_NO = 999
REV_AT_EPOCH   = 99154
BSTAR          = -.12965E-3
MEAN_MOTION_DOT = -.29E-5
MEAN_MOTION_DDOT = 0

CCSDS_OMM_VERS = 2.0
CREATION_DATE  = 
ORIGINATOR     = 

OBJECT_NAME    = SL-16 R/B
OBJECT_ID      = 1987-027B
CENTER_NAME    = EARTH
REF_FRAME      = TEME
TIME_SYSTEM    = UTC
MEAN_ELEMENT_THEORY = SGP/SGP4

EPOCH          = 2025-10-27T20:25:59.564640
MEAN_MOTION    = 14.17142199
ECCENTRICITY   = .0006764
INCLINATION    = 71.0030
RA_OF_ASC_NODE = 196.4111
ARG_OF_PERICENTER = 307.7508
MEAN_ANOMALY   = 52.3002

EPHEMERIS_TYPE = 0
CLASSIFICATION_TYPE = U
NORAD_CAT_ID   = 17590
ELEMENT_SET_NO = 999
REV_AT_EPOCH   = 99656
BSTAR          = -.58374E-4
MEAN_MOTION_DOT = -.166E-5
MEAN_MOTION_DDOT = 0

CCSDS_OMM_VERS = 2.0
CREATION_DATE  = 
ORIGINATOR     = 

OBJECT_NAME    = SL-14 R/B
OBJECT_ID      = 1987-038B
CENTER_NAME    = EARTH
REF_FRAME      = TEME
TIME_SYSTEM    = UTC
MEAN_ELEMENT_THEORY = SGP/SGP4

EPOCH          = 2025-10-27T20:23:41.493984
MEAN_MOTION    = 14.85188235
ECCENTRICITY   = .0018045
INCLINATION    = 82.5018
RA_OF_ASC_NODE = 61.9120
ARG_OF_PERICENTER = 241.7018
MEAN_ANOMALY   = 118.2377

EPHEMERIS_TYPE = 0
CLASSIFICATION_TYPE = U
NORAD_CAT_ID   = 17912
ELEMENT_SET_NO = 999
REV_AT_EPOCH   = 5951
BSTAR          = .98014E-4
MEAN_MOTION_DOT = .865E-5
MEAN_MOTION_DDOT = 0

CCSDS_OMM_VERS = 2.0
CREATION_DATE  = 
ORIGINATOR     = 

OBJECT_NAME    = COSMOS 1844
OBJECT_ID      = 1987-041A
CENTER_NAME    = EARTH
REF_FRAME      = TEME
TIME_SYSTEM    = UTC
MEAN_ELEMENT_THEORY = SGP/SGP4

EPOCH          = 2025-10-27T10:55:13.067040
MEAN_MOTION    = 14.14506668
ECCENTRICITY   = .0032628
INCLINATION    = 70.8978
RA_OF_ASC_NODE = 315.1953
ARG_OF_PERICENTER = 225.4746
MEAN_ANOMALY   = 134.3709

EPHEMERIS_TYPE = 0
CLASSIFICATION_TYPE = U
NORAD_CAT_ID   = 17973
ELEMENT_SET_NO = 999
REV_AT_EPOCH   = 98474
BSTAR          = .10958E-3
MEAN_MOTION_DOT = .163E-5
MEAN_MOTION_DDOT = 0

CCSDS_OMM_VERS = 2.0
CREATION_DATE  = 
ORIGINATOR     = 

OBJECT_NAME    = SL-14 R/B
OBJECT_ID      = 1987-055B
CENTER_NAME    = EARTH
REF_FRAME      = TEME
TIME_SYSTEM    = UTC
MEAN_ELEMENT_THEORY = SGP/SGP4

EPOCH          = 2025-10-27T20:23:38.864832
MEAN_MOTION    = 14.85446657
ECCENTRICITY   = .0022193
INCLINATION    = 82.4962
RA_OF_ASC_NODE = 114.2367
ARG_OF_PERICENTER = 92.5496
MEAN_ANOMALY   = 267.8261

EPHEMERIS_TYPE = 0
CLASSIFICATION_TYPE = U
NORAD_CAT_ID   = 18153
ELEMENT_SET_NO = 999
REV_AT_EPOCH   = 5021
BSTAR          = .86388E-4
MEAN_MOTION_DOT = .772E-5
MEAN_MOTION_DDOT = 0

CCSDS_OMM_VERS = 2.0
CREATION_DATE  = 
ORIGINATOR     = 

OBJECT_NAME    = COSMOS 1867
OBJECT_ID      = 1987-060A
CENTER_NAME    = EARTH
REF_FRAME      = TEME
TIME_SYSTEM    = UTC
MEAN_ELEMENT_THEORY = SGP/SGP4

EPOCH          = 2025-10-27T10:10:03.476640
MEAN_MOTION    = 14.31474471
ECCENTRICITY   = .0013799
INCLINATION    = 65.0108
RA_OF_ASC_NODE = 319.9066
ARG_OF_PERICENTER = 266.5681
MEAN_ANOMALY   = 93.3825

EPHEMERIS_TYPE = 0
CLASSIFICATION_TYPE = U
NORAD_CAT_ID   = 18187
ELEMENT_SET_NO = 999
REV_AT_EPOCH   = 86
BSTAR          = .43849E-4
MEAN_MOTION_DOT = .17E-6
MEAN_MOTION_DDOT = 0

