COSMOS 1743             
1 16719U 86034A   25300.77028110  .00029844  00000+0  54910-3 0  9999
2 16719  82.5383 212.2143 0009328  64.4501 295.7712 15.48991096159619
SL-14 R/B               
1 16792U 86046B   25300.84146256  .00000752  00000+0  84176-4 0  9998
2 16792  82.4845 205.6518 0022016 309.9460  49.9821 14.85416234106689
SL-14 R/B               
1 16882U 86055B   25300.84151094  .00000925  00000+0  10416-3 0  9991
2 16882  82.5196 251.4956 0020393  54.5452   9.0867 14.85452698 99642
AJISAI (EGS)            
1 16908U 86061A   25300.87717375 -.00000096  00000+0  11719-4 0  9998
2 16908  50.0073 141.7429 0011140 309.9082  72.1273 12.44514005451465
COSMOS 1812             
1 17295U 87003A   25300.16031729  .00059675  00000+0  56440-3 0  9994
2 17295  82.4905 342.0814 0002905 193.8739 166.2442 15.66751537123346
SL-14 R/B               
1 17567U 87024B   25300.85573094  .00000860  00000+0  95607-4 0  9992
2 17567  82.5304 217.5480 0017960 345.8385  14.2325 14.85954156 68409
COSMOS 1833             
1 17589U 87027A   25300.84509439 -.00000290  00000+0 -12965-3 0  9994
2 17589  70.9166 245.2511 0020393  37.1547 323.0981 14.13027146991548
SL-16 R/B               
1 17590U 87027B   25300.85138385 -.00000166  00000+0 -58374-4 0  9992
2 17590  71.0030 196.4111 0006764 307.7508  52.3002 14.17142199996567
SL-14 R/B               
1 17912U 87038B   25300.84978581  .00000865  00000+0  98014-4 0  9990
2 17912  82.5018  61.9120 0018045 241.7018 118.2377 14.85188235 59510
COSMOS 1844             
1 17973U 87041A   25300.45501235  .00000163  00000+0  10958-3 0  9997
2 17973  70.8978 315.1953 0032628 225.4746 134.3709 14.14506668984746
SL-14 R/B               
1 18153U 87055B   25300.84975538  .00000772  00000+0  86388-4 0  9994
2 18153  82.4962 114.2367 0022193  92.5496 267.8261 14.85446657 50217
COSMOS 1867             
1 18187U 87060A   25300.42365135  .00000017  00000+0  43849-4 0  9994
2 18187  65.0108 319.9066 0013799 266.5681  93.3825 14.31474471   864
